STARLINK-2147           
1 47736U 21017Q   26068.64274156  .00003562  00000+0  25787-3 0  9992
2 47736  53.0562 201.8296 0001356  88.3809 271.7335 15.06407208277916
KUIPER-00094            
1 64839U 25151Z   26068.91141455  .00007667  00000+0  56296-3 0  9992
2 64839  51.8894 261.3496 0005517 288.9664  71.0710 15.04318495 35878
