[{"OBJECT_NAME":"STARLINK-2147","OBJECT_ID":"2021-017Q","EPOCH":"2026-03-09T15:25:32.870784","MEAN_MOTION":15.06407208,"ECCENTRICITY":0.0001356,"INCLINATION":53.0562,"RA_OF_ASC_NODE":201.8296,"ARG_OF_PERICENTER":88.3809,"MEAN_ANOMALY":271.7335,"EPHEMERIS_TYPE":0,"CLASSIFICATION_TYPE":"U","NORAD_CAT_ID":47736,"ELEMENT_SET_NO":999,"REV_AT_EPOCH":27791,"BSTAR":0.00025787,"MEAN_MOTION_DOT":3.562e-5,"MEAN_MOTION_DDOT":0},{"OBJECT_NAME":"KUIPER-00094","OBJECT_ID":"2025-151Z","EPOCH":"2026-03-09T21:52:26.217120","MEAN_MOTION":15.04318495,"ECCENTRICITY":0.00055168,"INCLINATION":51.8894,"RA_OF_ASC_NODE":261.3496,"ARG_OF_PERICENTER":288.9664,"MEAN_ANOMALY":71.071,"EPHEMERIS_TYPE":0,"CLASSIFICATION_TYPE":"U","NORAD_CAT_ID":64839,"ELEMENT_SET_NO":999,"REV_AT_EPOCH":3587,"BSTAR":0.00056295714,"MEAN_MOTION_DOT":7.667e-5,"MEAN_MOTION_DDOT":0}]
